[
    {
        "Altitude(m)": 610405.285259824,
        "Argument of Periapsis(deg)": 0.0,
        "Eccentricity": 0.0,
        "Inclination(deg)": 60.0,
        "Latitude(deg)": 52.11116737124766,
        "Longitude(deg)": -37.522669997102405,
        "Mean Anomaly(deg)": -245.4545,
        "RAAN(deg)": 290.0,
        "Satellite Name": "Test1 1283",
        "Satellite Number": 1283,
        "Semi-Major Axis(m)": 6980739.136638005,
        "Time(s)": 0
    },
    {
        "Altitude(m)": 610321.8584589267,
        "Argument of Periapsis(deg)": 0.00010418945913296404,
        "Eccentricity": 0.0,
        "Inclination(deg)": 60.0,
        "Latitude(deg)": 51.74588327143782,
        "Longitude(deg)": -36.75377678055799,
        "Mean Anomaly(deg)": -244.83439385453815,
        "RAAN(deg)": 289.99957995086027,
        "Satellite Name": "Test1 1283",
        "Satellite Number": 1283,
        "Semi-Major Axis(m)": 6980739.136638005,
        "Time(s)": 10
    }
]